OBJECT_NAME,OBJECT_ID,EPOCH,MEAN_MOTION,ECCENTRICITY,INCLINATION,RA_OF_ASC_NODE,ARG_OF_PERICENTER,MEAN_ANOMALY,EPHEMERIS_TYPE,CLASSIFICATION_TYPE,NORAD_CAT_ID,ELEMENT_SET_NO,REV_AT_EPOCH,BSTAR,MEAN_MOTION_DOT,MEAN_MOTION_DDOT,RMS,DATA_SOURCE
STARLINK-4058,2022-086AA,2026-01-02T20:31:41.999981,15.08817330,.0001359,53.2161,129.6604,88.1094,108.7248,0,C,53266,2,1,.11236E-2,.17916E-3,0,0.246,SpaceX-E
STARLINK-4060,2022-086AB,2026-01-02T20:34:42.000038,15.08825267,.0001545,53.2155,129.6518,110.3515,157.7858,0,C,53267,2,1,.76142E-3,.12142E-3,0,0.269,SpaceX-E
STARLINK-4109,2022-086AC,2026-01-02T20:39:42.000019,15.08825622,.0001339,53.2155,129.6357,88.9984,177.9992,0,C,53268,2,1,.73285E-3,.11686E-3,0,0.278,SpaceX-E
STARLINK-4057,2022-086AD,2026-01-02T20:36:41.999962,15.08824547,.000131,53.2171,119.6455,92.6708,218.0025,0,C,53269,2,1,.76038E-3,.12125E-3,0,0.301,SpaceX-E
STARLINK-4122,2022-086AG,2026-01-02T20:37:42.000010,15.08818820,.0001179,53.2170,119.6427,89.7778,204.6915,0,C,53272,2,1,.11691E-2,.18643E-3,0,0.244,SpaceX-E
STARLINK-4051,2022-086AH,2026-01-02T20:35:42.000000,15.08806676,.000138,53.2162,119.6489,81.3980,305.4475,0,C,53273,2,1,.13051E-2,.20807E-3,0,0.241,SpaceX-E
STARLINK-4050,2022-086AJ,2026-01-02T20:34:42.000038,15.08819979,.0001494,53.2167,119.6517,90.0315,233.1132,0,C,53274,2,1,.67886E-3,.10824E-3,0,0.313,SpaceX-E
STARLINK-4179,2022-086AK,2026-01-02T20:35:42.000000,15.08823499,.0001401,53.2159,119.6496,87.8699,319.0354,0,C,53275,2,1,.64667E-3,.10311E-3,0,0.320,SpaceX-E
STARLINK-4174,2022-086AL,2026-01-02T20:38:41.999971,15.08813254,.0001383,53.2164,119.6391,90.7969,287.4559,0,C,53276,2,1,.12453E-2,.19856E-3,0,0.243,SpaceX-E
STARLINK-4178,2022-086AM,2026-01-02T20:37:42.000010,15.08829289,.0001335,53.2156,119.6728,88.8814,5.5611,0,C,53277,2,1,.36455E-3,.58129E-4,0,0.258,SpaceX-E
STARLINK-4180,2022-086AN,2026-01-02T20:10:42.000010,15.08814067,.0001329,53.2151,119.7295,90.3365,242.2383,0,C,53278,2,1,.13209E-2,.21063E-3,0,0.241,SpaceX-E
STARLINK-4169,2022-086AQ,2026-01-02T20:33:41.999990,15.08818087,.000131,53.2167,74.3307,89.0028,38.0729,0,C,53280,2,1,.10419E-2,.16613E-3,0,0.264,SpaceX-E
STARLINK-4164,2022-086AS,2026-01-02T20:32:42.000029,15.08814743,.0001363,53.2154,119.6604,81.4118,14.1849,0,C,53282,2,1,.12033E-2,.19187E-3,0,0.239,SpaceX-E
STARLINK-4175,2022-086AT,2026-01-02T20:34:42.000038,15.08822045,.0001345,53.2158,119.6553,88.0949,75.0397,0,C,53283,2,1,.12133E-2,.19351E-3,0,0.239,SpaceX-E
STARLINK-4173,2022-086AV,2026-01-02T20:38:41.999971,15.08817958,.0001399,53.2164,119.6417,88.6719,149.5620,0,C,53285,2,1,.1232E-2,.19646E-3,0,0.243,SpaceX-E
STARLINK-4165,2022-086AW,2026-01-02T20:34:42.000038,15.08812239,.0001304,53.2162,119.3437,88.7797,254.5799,0,C,53286,2,1,.12658E-2,.20183E-3,0,0.242,SpaceX-E
STARLINK-4107,2022-086AX,2026-01-02T20:38:41.999971,15.08824067,.0001304,53.2169,119.6404,89.6876,188.5527,0,C,53287,2,1,.38953E-3,.62104E-4,0,0.367,SpaceX-E
STARLINK-4162,2022-086AY,2026-01-02T20:39:42.000019,15.08816904,.0001236,53.2162,119.6389,84.3802,137.6322,0,C,53288,2,1,.87359E-3,.13928E-3,0,0.277,SpaceX-E
STARLINK-4176,2022-086AZ,2026-01-02T20:38:41.999971,15.08822309,.0001246,53.2165,114.7829,93.7921,311.8359,0,C,53289,2,1,.68738E-3,.1096E-3,0,0.318,SpaceX-E
STARLINK-4149,2022-086BA,2026-01-02T20:36:41.999962,15.08823390,.0001255,53.2167,119.6512,88.5107,162.1741,0,C,53290,2,1,.49539E-3,.78985E-4,0,0.346,SpaceX-E
STARLINK-4166,2022-086BB,2026-01-02T20:39:42.000019,15.08814806,.000133,53.2156,114.4285,95.3318,134.3370,0,C,53291,2,1,.11952E-2,.19058E-3,0,0.250,SpaceX-E
STARLINK-4159,2022-086BC,2026-01-02T20:39:42.000019,15.08819338,.0001247,53.2159,119.8219,88.8805,113.0098,0,C,53292,2,1,.77049E-3,.12285E-3,0,0.289,SpaceX-E
STARLINK-4148,2022-086BD,2026-01-02T20:34:42.000038,15.08819015,.0001354,53.2172,109.6421,90.5223,347.6200,0,C,53293,2,1,.73434E-3,.11708E-3,0,0.317,SpaceX-E
STARLINK-4146,2022-086BE,2026-01-02T20:29:41.999971,15.08818440,.0001313,53.2167,109.5051,97.0148,222.3423,0,C,53294,2,1,.10173E-2,.16222E-3,0,0.271,SpaceX-E
STARLINK-4522,2022-097A,2026-01-02T19:51:41.999962,15.08817893,.0001364,53.2170,59.7871,86.1271,344.7104,0,C,53388,2,1,.10442E-2,.1665E-3,0,0.262,SpaceX-E
STARLINK-4523,2022-097B,2026-01-02T19:51:41.999962,15.08834832,.000158,53.2161,59.7877,78.2075,32.6395,0,C,53389,2,1,.20938E-3,.33389E-4,0,0.279,SpaceX-E
STARLINK-4517,2022-097C,2026-01-02T19:56:42.000029,15.08815486,.0001389,53.2168,59.7716,84.3952,25.2982,0,C,53390,2,1,.96125E-3,.15326E-3,0,0.271,SpaceX-E
STARLINK-4521,2022-097D,2026-01-02T19:26:41.999971,15.08820757,.0001349,53.2159,59.8659,87.7637,308.7328,0,C,53391,2,1,.89267E-3,.14234E-3,0,0.274,SpaceX-E
STARLINK-4535,2022-097E,2026-01-02T19:53:41.999971,15.08822637,.0001348,53.2163,59.7825,85.1837,93.2179,0,C,53392,2,1,.70897E-3,.11305E-3,0,0.310,SpaceX-E
STARLINK-4530,2022-097F,2026-01-02T19:51:41.999962,15.08819629,.0001379,53.2159,59.7893,90.2078,60.6399,0,C,53393,2,1,.9781E-3,.15596E-3,0,0.264,SpaceX-E
STARLINK-4544,2022-097G,2026-01-02T19:51:41.999962,15.08830361,.0001352,53.2169,49.4003,88.7524,357.3348,0,C,53394,2,1,.47198E-3,.75265E-4,0,0.331,SpaceX-E
STARLINK-4534,2022-097H,2026-01-02T19:10:41.999981,15.08833605,.0001342,53.2167,59.9267,93.7809,297.1217,0,C,53395,2,1,-.4934E-5,-.78672E-6,0,0.277,SpaceX-E
STARLINK-4524,2022-097J,2026-01-02T19:53:41.999971,15.08828765,.0001405,53.2173,59.7829,92.6372,185.7597,0,C,53396,2,1,.64983E-3,.10363E-3,0,0.366,SpaceX-E
STARLINK-4515,2022-097K,2026-01-02T19:58:42.000038,15.08818092,.0001356,53.2170,59.7676,85.9627,151.3075,0,C,53397,2,1,.99024E-3,.15789E-3,0,0.266,SpaceX-E
STARLINK-4512,2022-097L,2026-01-02T19:54:42.000019,15.08835548,.0001378,53.2173,59.7796,94.4386,227.7188,0,C,53398,2,1,.35758E-3,.57027E-4,0,0.240,SpaceX-E
STARLINK-4528,2022-097M,2026-01-02T19:59:42.000000,15.08823084,.0001239,53.2174,59.7639,90.5999,190.4460,0,C,53399,2,1,.57508E-3,.91692E-4,0,0.345,SpaceX-E
STARLINK-4520,2022-097N,2026-01-02T19:53:41.999971,15.08833492,.0001428,53.2172,59.7814,89.7349,288.6472,0,C,53400,2,1,.46084E-3,.73496E-4,0,0.374,SpaceX-E
STARLINK-4525,2022-097P,2026-01-02T19:49:42.000038,15.08822461,.0001321,53.2172,59.7957,81.5176,201.7854,0,C,53401,2,1,.75373E-3,.12018E-3,0,0.327,SpaceX-E
STARLINK-4499,2022-097Q,2026-01-02T19:53:41.999971,15.08833386,.0001485,53.2170,59.7812,83.5424,314.8338,0,C,53402,2,1,.48433E-3,.77242E-4,0,0.350,SpaceX-E
STARLINK-4507,2022-097R,2026-01-02T19:25:42.000010,15.08818562,.0001241,53.2159,60.2158,87.0546,320.2322,0,C,53403,2,1,.99058E-3,.15795E-3,0,0.259,SpaceX-E
STARLINK-4509,2022-097S,2026-01-02T19:37:41.999981,15.08821947,.0001422,53.2175,49.7646,80.0227,347.8324,0,C,53404,2,1,.96473E-3,.15384E-3,0,0.265,SpaceX-E
STARLINK-4510,2022-097T,2026-01-02T19:52:42.000010,15.08823952,.0001315,53.2170,59.7842,83.5508,331.0653,0,C,53405,2,1,.9602E-3,.15313E-3,0,0.273,SpaceX-E
STARLINK-4533,2022-097U,2026-01-02T19:52:42.000010,15.08844317,.000137,53.2167,49.7837,88.2265,101.3865,0,C,53406,2,1,-.53915E-3,-.85972E-4,0,0.288,SpaceX-E
STARLINK-4491,2022-097W,2026-01-02T19:59:42.000000,15.08823719,.0001361,53.2175,49.7678,88.0384,67.9928,0,C,53408,2,1,.91779E-3,.14636E-3,0,0.265,SpaceX-E
STARLINK-4490,2022-097X,2026-01-02T19:55:41.999981,15.08840312,.0001345,53.2169,39.9713,89.0213,86.7860,0,C,53409,2,1,-.2189E-3,-.34906E-4,0,0.303,SpaceX-E
STARLINK-4492,2022-097Y,2026-01-02T19:54:42.000019,15.08841497,.0001461,53.2175,49.7783,90.7965,66.3607,0,C,53410,2,1,-.68331E-4,-.10897E-4,0,0.226,SpaceX-E
STARLINK-4497,2022-097Z,2026-01-02T19:56:42.000029,15.08820478,.0001337,53.2177,49.7729,88.6469,36.0677,0,C,53411,2,1,.93874E-3,.14969E-3,0,0.266,SpaceX-E
STARLINK-4496,2022-097AA,2026-01-02T19:50:42.000000,15.08839823,.0001433,53.2160,49.7915,88.5067,113.5640,0,C,53412,2,1,-.23735E-3,-.37847E-4,0,0.323,SpaceX-E
STARLINK-4500,2022-097AB,2026-01-02T19:59:42.000000,15.08829823,.0001276,53.2169,49.7625,91.0426,105.0040,0,C,53413,2,1,.47504E-3,.75753E-4,0,0.354,SpaceX-E
STARLINK-4304,2022-097AC,2026-01-02T20:34:42.000038,15.08844426,.0001397,53.2164,49.6528,91.0699,297.0488,0,C,53414,2,1,-.33113E-3,-.52806E-4,0,0.209,SpaceX-E
STARLINK-4479,2022-097AD,2026-01-02T19:45:42.000019,15.08831164,.0001362,53.2161,49.8062,86.5020,136.6947,0,C,53415,2,1,.50403E-3,.80379E-4,0,0.335,SpaceX-E
STARLINK-4480,2022-097AE,2026-01-02T19:58:42.000038,15.08847823,.0001354,53.2168,49.7185,87.9908,264.2899,0,C,53416,2,1,-.46806E-3,-.74646E-4,0,0.210,SpaceX-E
STARLINK-4484,2022-097AF,2026-01-02T19:56:42.000029,15.08822706,.0001425,53.2161,49.7722,82.0833,202.6340,0,C,53417,2,1,.97765E-3,.15591E-3,0,0.267,SpaceX-E
STARLINK-4481,2022-097AG,2026-01-02T19:54:42.000019,15.08825816,.0001358,53.2168,39.3448,84.4721,47.9829,0,C,53418,2,1,.71657E-3,.11427E-3,0,0.275,SpaceX-E
STARLINK-4476,2022-097AH,2026-01-02T19:49:42.000038,15.08823734,.0001413,53.2162,49.7944,82.5212,195.7739,0,C,53419,2,1,.94781E-3,.15115E-3,0,0.266,SpaceX-E
STARLINK-4552,2022-097AJ,2026-01-02T19:59:42.000000,15.08832941,.0001275,53.2169,49.7647,95.9801,280.0575,0,C,53420,2,1,.24437E-3,.38967E-4,0,0.379,SpaceX-E
STARLINK-4545,2022-097AK,2026-01-02T19:50:42.000000,15.08827880,.0001345,53.2160,49.7922,86.1877,215.8784,0,C,53421,2,1,.54098E-3,.86265E-4,0,0.340,SpaceX-E
STARLINK-4546,2022-097AL,2026-01-02T19:54:42.000019,15.08834857,.0001344,53.2171,49.7801,84.0540,313.1122,0,C,53422,2,1,.32688E-3,.52129E-4,0,0.381,SpaceX-E
STARLINK-4539,2022-097AM,2026-01-02T19:47:42.000029,15.08823791,.000143,53.2167,49.8115,93.5576,211.9746,0,C,53423,2,1,.91015E-3,.14514E-3,0,0.267,SpaceX-E
STARLINK-4532,2022-097AN,2026-01-02T19:50:42.000000,15.08808541,.0001135,53.2177,49.7920,99.9916,322.0171,0,C,53424,2,1,.93555E-3,.14913E-3,0,0.268,SpaceX-E
STARLINK-4531,2022-097AP,2026-01-02T19:56:42.000029,15.08832587,.000125,53.2167,49.7731,97.6287,287.0843,0,C,53425,2,1,.25668E-3,.40931E-4,0,0.373,SpaceX-E
STARLINK-4558,2022-097AQ,2026-01-02T19:53:41.999971,15.08829837,.0001441,53.2175,39.9385,85.3479,102.9289,0,C,53426,2,1,.73191E-3,.11673E-3,0,0.284,SpaceX-E
